[{"OBJECT_NAME":"YAOGAN-31 02C","OBJECT_ID":"2021-007E","EPOCH":"2026-03-09T23:15:50.360832","MEAN_MOTION":13.45441,"ECCENTRICITY":0.01674626,"INCLINATION":63.4047,"RA_OF_ASC_NODE":37.1202,"ARG_OF_PERICENTER":0.2529,"MEAN_ANOMALY":359.8553,"EPHEMERIS_TYPE":0,"CLASSIFICATION_TYPE":"U","NORAD_CAT_ID":47536,"ELEMENT_SET_NO":999,"REV_AT_EPOCH":25086,"BSTAR":0.00019769935,"MEAN_MOTION_DOT":3.7e-7,"MEAN_MOTION_DDOT":0},{"OBJECT_NAME":"SL-16 DEB","OBJECT_ID":"1985-097E","EPOCH":"2026-03-09T21:12:08.917056","MEAN_MOTION":13.77190841,"ECCENTRICITY":0.01898334,"INCLINATION":70.9964,"RA_OF_ASC_NODE":329.9946,"ARG_OF_PERICENTER":341.8072,"MEAN_ANOMALY":95.932,"EPHEMERIS_TYPE":0,"CLASSIFICATION_TYPE":"U","NORAD_CAT_ID":16391,"ELEMENT_SET_NO":999,"REV_AT_EPOCH":2814,"BSTAR":0.00010436352,"MEAN_MOTION_DOT":7.4e-7,"MEAN_MOTION_DDOT":0}]
